[{"OBJECT_NAME":"STARLINK-3107","OBJECT_ID":"2021-082AT","EPOCH":"2026-03-09T21:59:27.140640","MEAN_MOTION":15.10504087,"ECCENTRICITY":0.00073375,"INCLINATION":69.9932,"RA_OF_ASC_NODE":287.3824,"ARG_OF_PERICENTER":250.2407,"MEAN_ANOMALY":109.7967,"EPHEMERIS_TYPE":0,"CLASSIFICATION_TYPE":"U","NORAD_CAT_ID":49171,"ELEMENT_SET_NO":999,"REV_AT_EPOCH":24733,"BSTAR":0.001517345,"MEAN_MOTION_DOT":0.00025048,"MEAN_MOTION_DDOT":0},{"OBJECT_NAME":"STARLINK-5094","OBJECT_ID":"2022-125P","EPOCH":"2026-03-09T21:47:22.890048","MEAN_MOTION":15.08836027,"ECCENTRICITY":0.00011154,"INCLINATION":53.2166,"RA_OF_ASC_NODE":218.2515,"ARG_OF_PERICENTER":89.3412,"MEAN_ANOMALY":270.7708,"EPHEMERIS_TYPE":0,"CLASSIFICATION_TYPE":"U","NORAD_CAT_ID":53977,"ELEMENT_SET_NO":999,"REV_AT_EPOCH":18942,"BSTAR":1.5725436e-5,"MEAN_MOTION_DOT":-3.8e-7,"MEAN_MOTION_DDOT":0}]
